GLOBALSTAR M067         
1 32263U 07048A   24328.27137139 -.00000026  00000+0  52888-3 0  9999
2 32263  51.9732 278.4538 0000559 305.4059 202.5423 12.40660766783922
GLOBALSTAR M070         
1 32264U 07048B   24328.67719980 -.00000070  00000+0  18733-3 0  9994
2 32264  51.9775  34.5641 0000442  94.3708  43.3208 12.62306111787710
GLOBALSTAR M066         
1 32265U 07048C   24328.75053490 -.00000059  00000+0  28596-3 0  9996
2 32265  51.9673 263.8843 0000913  28.2679   0.7253 12.42166478789857
GLOBALSTAR M068         
1 32266U 07048D   24328.67550154 -.00000072  00000+0  17767-3 0  9990
2 32266  51.9870 208.7187 0001942  58.8214 346.7003 12.62808992791599
GLOBALSTAR M079         
1 37188U 10054A   24328.63447911 -.00000085  00000+0  10398-3 0  9998
2 37188  52.0058  45.5215 0000683 145.0307   2.6398 12.62267390650498
GLOBALSTAR M074         
1 37189U 10054B   24328.82100243 -.00000086  00000+0  97577-4 0  9990
2 37189  52.0038  44.3053 0000366 110.4394  46.9187 12.62259255651123
GLOBALSTAR M076         
1 37190U 10054C   24328.68182480 -.00000083  00000+0  11740-3 0  9993
2 37190  52.0051  44.8850 0000361 161.0931 321.1791 12.62273765650821
GLOBALSTAR M077         
1 37191U 10054D   24328.34969470 -.00000084  00000+0  10827-3 0  9995
2 37191  52.0093   2.6944 0000274 102.4907   9.8978 12.62267283651151
